IRIDIUM 112             
1 41925U 17003J   23288.56034544  .00000533  00000+0  18339-3 0  9993
2 41925  86.3957 136.0815 0002302  86.3943 273.7516 14.34220613353430
IRIDIUM 111             
1 41926U 17003K   23288.61743104  .00000491  00000+0  16809-3 0  9992
2 41926  86.3958 136.1066 0001931  80.1821 279.9592 14.34219119353425
IRIDIUM 113             
1 42803U 17039A   23288.59739715  .00000020  00000+0  12133-6 0  9993
2 42803  86.4030   9.8476 0002080  89.8579 270.2856 14.34218490331351
IRIDIUM 123             
1 42804U 17039B   23288.56910667  .00000753  00000+0  26165-3 0  9998
2 42804  86.4002  41.3459 0002263  86.8372 273.3083 14.34216387330116
IRIDIUM 120             
1 42805U 17039C   23288.59105208  .00000465  00000+0  15901-3 0  9995
2 42805  86.4024   9.7596 0002089  92.5366 267.6069 14.34219461331346
IRIDIUM 115             
1 42806U 17039D   23288.49684009  .00000929  00000+0  26970-3 0  9999
2 42806  86.4561   9.7886 0002015  88.2298 271.9134 14.43351053333538
IRIDIUM 118             
1 42807U 17039E   23288.60081927  .00000671  00000+0  23263-3 0  9999
2 42807  86.4003  41.3349 0002142  93.7690 266.3751 14.34216590330114
IRIDIUM 117             
1 42808U 17039F   23288.55006701  .00000730  00000+0  25359-3 0  9995
2 42808  86.4000  41.3224 0002024  94.3311 265.8116 14.34213146330135
